NORAD_CAT_ID,OBJECT_NAME,OBJECT_TYPE,EPOCH,MEAN_MOTION,ECCENTRICITY,INCLINATION,RA_OF_ASC_NODE,ARG_OF_PERICENTER,MEAN_ANOMALY,BSTAR,MEAN_MOTION_DOT,MEAN_MOTION_DDOT,TLE_LINE0,TLE_LINE1,TLE_LINE2,SEMIMAJOR_AXIS,PERIOD,APOGEE,PERIGEE,DECAYED
51105.0,STARLINK-3350,PAYLOAD,2022-03-16 20:00:01,15.73275255,0.0003186,53.2173,353.4689,19.5723,82.0642,-0.0005719,-0.00080406,0.0,0 STARLINK-3350,1 51105U 22005B   22075.83334491 -.00080406  00000-0 -57190-3 0  9997,2 51105  53.2173 353.4689 0003186  19.5723  82.0642 15.73275255  3689,6727.681,91.529,351.689,347.402,0.0
51105.0,STARLINK-3350,PAYLOAD,2022-03-17 06:00:00,15.73222728,0.0003335,53.2166,351.4089,13.282,289.5791,-3.2174e-05,-5.142e-05,0.0,0 STARLINK-3350,1 51105U 22005B   22076.25001157 -.00005142  00000-0 -32174-4 0  9994,2 51105  53.2166 351.4089 0003335  13.2820 289.5791 15.73222728 10323,6727.83,91.532,351.939,347.452,0.0
51105.0,STARLINK-3350,PAYLOAD,2022-03-17 14:00:01,15.73159256,0.0003016,53.2168,349.7573,13.3293,18.4941,0.00062775,0.00088269,0.0,0 STARLINK-3350,1 51105U 22005B   22076.58334491  .00088269  00000-0  62775-3 0  9998,2 51105  53.2168 349.7573 0003016  13.3293  18.4941 15.73159256  3709,6728.011,91.536,351.906,347.847,0.0
51105.0,STARLINK-3350,PAYLOAD,2022-03-17 22:00:00,15.73240803,0.0003114,53.217,348.1088,13.8818,106.853,-6.186000000000001e-06,-1.493e-05,0.0,0 STARLINK-3350,1 51105U 22005B   22076.91667824 -.00001493  00000-0 -61860-5 0  9996,2 51105  53.2170 348.1088 0003114  13.8818 106.8530 15.73240803  3708,6727.779,91.531,351.73900000000015,347.5490000000001,0.0
51105.0,STARLINK-3350,PAYLOAD,2022-03-18 14:00:01,15.73220207,0.0003005,53.2167,344.809,7.822,290.8497,-0.00017457,-0.00025077,0.0,0 STARLINK-3350,1 51105U 22005B   22077.58334491 -.00025077  00000-0 -17457-3 0  9996,2 51105  53.2167 344.8090 0003005   7.8220 290.8497 15.73220207 10530,6727.8380000000025,91.532,351.724,347.681,0.0
51105.0,STARLINK-3350,PAYLOAD,2022-03-18 22:00:00,15.73215248,0.0003133,53.2165,343.1608,8.2969,19.3132,-9.8038e-05,-0.00014371,0.0,0 STARLINK-3350,1 51105U 22005B   22077.91667824 -.00014371  00000-0 -98038-4 0  9992,2 51105  53.2165 343.1608 0003133   8.2969  19.3132 15.73215248  3768,6727.852,91.532,351.825,347.6090000000001,0.0
51105.0,STARLINK-3350,PAYLOAD,2022-03-19 14:00:01,15.73170269,0.0003003999999999,53.2158,339.8604,11.7313,193.757,0.00067269,0.00094751,0.0,0 STARLINK-3350,1 51105U 22005B   22078.58334491  .00094751  00000-0  67269-3 0  9996,2 51105  53.2158 339.8604 0003004  11.7313 193.7570 15.73170269 10693,6727.98,91.535,351.866,347.824,0.0
51105.0,STARLINK-3350,PAYLOAD,2022-03-19 22:00:01,15.73275799,0.00031,53.216,338.2123,11.5357,282.9417,-0.00061028,-0.00085707,0.0,0 STARLINK-3350,1 51105U 22005B   22078.91668981 -.00085707  00000-0 -61028-3 0  9997,2 51105  53.2160 338.2123 0003100  11.5357 282.9417 15.73275799  3729,6727.679,91.529,351.63,347.458,0.0
51105.0,STARLINK-3350,PAYLOAD,2022-03-20 06:00:00,15.73205933,0.0003338,53.2158,336.5635,9.5651,13.8004,-4.0843e-05,-6.354e-05,0.0,0 STARLINK-3350,1 51105U 22005B   22079.25001157 -.00006354  00000-0 -40843-4 0  9995,2 51105  53.2158 336.5635 0003338   9.5651  13.8004 15.73205933 10793,6727.878000000002,91.533,351.98900000000015,347.497,0.0
51105.0,STARLINK-3350,PAYLOAD,2022-03-20 14:00:01,15.73153263,0.0003067,53.2157,334.9119,13.3025,99.0141,0.00039551,0.0005515,0.0,0 STARLINK-3350,1 51105U 22005B   22079.58334491  .00055150  00000-0  39551-3 0  9990,2 51105  53.2157 334.9119 0003067  13.3025  99.0141 15.73153263  3684,6728.028,91.536,351.957,347.83,0.0
51105.0,STARLINK-3350,PAYLOAD,2022-03-20 22:00:01,15.73207647,0.0003247,53.2155,333.264,15.0763,186.2145,0.00017375,0.00023845,0.0,0 STARLINK-3350,1 51105U 22005B   22079.91668981  .00023845  00000-0  17375-3 0  9997,2 51105  53.2155 333.2640 0003247  15.0763 186.2145 15.73207647  3714,6727.873000000001,91.533,351.923,347.55400000000014,0.0
51105.0,STARLINK-3350,PAYLOAD,2022-03-21 06:00:00,15.73259594,0.000328,53.2148,331.6147,12.8404,277.3202,-0.00017431,-0.00025084,0.0,0 STARLINK-3350,1 51105U 22005B   22080.25001157 -.00025084  00000-0 -17431-3 0  9994,2 51105  53.2148 331.6147 0003280  12.8404 277.3202 15.73259594 10952,6727.725,91.53,351.797,347.384,0.0
51105.0,STARLINK-3350,PAYLOAD,2022-03-21 14:00:01,15.73213502,0.0003009,53.2149,329.963,14.1908,4.9645,-9.2208e-05,-0.00013554,0.0,0 STARLINK-3350,1 51105U 22005B   22080.58334491 -.00013554  00000-0 -92208-4 0  9995,2 51105  53.2149 329.9630 0003009  14.1908   4.9645 15.73213502  3690,6727.857,91.532,351.746,347.69699999999995,0.0
51105.0,STARLINK-3350,PAYLOAD,2022-03-21 22:00:00,15.73174647,0.0003232,53.2151,328.3151,16.5535,91.528,4.6666e-05,5.925e-05,0.0,0 STARLINK-3350,1 51105U 22005B   22080.91667824  .00005925  00000-0  46666-4 0  9999,2 51105  53.2151 328.3151 0003232  16.5535  91.5280 15.73174647 11056,6727.967,91.535,352.00699999999995,347.658,0.0
51105.0,STARLINK-3350,PAYLOAD,2022-03-22 14:00:01,15.73175996,0.0003073,53.215,325.0142,15.1479,270.7669,0.00015918,0.00021757,0.0,0 STARLINK-3350,1 51105U 22005B   22081.58334491  .00021757  00000-0  15918-3 0  9990,2 51105  53.2150 325.0142 0003073  15.1479 270.7669 15.73175996  3729,6727.964,91.535,351.896,347.761,0.0
51105.0,STARLINK-3350,PAYLOAD,2022-03-22 22:00:01,15.73194285,0.0003253999999999,53.2149,323.3663,14.093,0.7965,8.2001e-05,0.000109,0.0,0 STARLINK-3350,1 51105U 22005B   22081.91668981  .00010900  00000-0  82001-4 0  9997,2 51105  53.2149 323.3663 0003254  14.0930   0.7965 15.73194285  3707,6727.911,91.534,351.966,347.587,0.0
51105.0,STARLINK-3350,PAYLOAD,2022-03-23 06:00:00,15.73254008,0.000327,53.2143,321.7167,12.5317,91.2185,-0.00038326,-0.00054207,0.0,0 STARLINK-3350,1 51105U 22005B   22082.25001157 -.00054207  00000-0 -38326-3 0  9991,2 51105  53.2143 321.7167 0003270  12.5317  91.2185 15.73254008 11261,6727.741,91.53,351.806,347.406,0.0
51105.0,STARLINK-3350,PAYLOAD,2022-03-23 14:00:01,15.73182651,0.000293,53.2144,320.0652,10.7024,182.0422,0.00064516,0.00090853,0.0,0 STARLINK-3350,1 51105U 22005B   22082.58334491  .00090853  00000-0  64516-3 0  9992,2 51105  53.2144 320.0652 0002930  10.7024 182.0422 15.73182651  3718,6727.945,91.534,351.781,347.838,0.0
51105.0,STARLINK-3350,PAYLOAD,2022-03-23 20:00:01,15.73257862,0.0003057,53.2148,318.8294,9.8275,159.5935,-0.00055228,-0.00077634,0.0,0 STARLINK-3350,1 51105U 22005B   22082.83334491 -.00077634  00000-0 -55228-3 0  9994,2 51105  53.2148 318.8294 0003057   9.8275 159.5935 15.73257862 11351,6727.73,91.53,351.652,347.539,0.0
51105.0,STARLINK-3350,PAYLOAD,2022-03-23 22:00:00,15.73255487,0.0003139,53.2146,318.4176,9.1978,272.4663,-0.00068666,-0.00096155,0.0,0 STARLINK-3350,1 51105U 22005B   22082.91667824 -.00096155  00000-0 -68666-3 0  9991,2 51105  53.2146 318.4176 0003139   9.1978 272.4663 15.73255487  3713,6727.736999999999,91.53,351.714,347.49,0.0
51105.0,STARLINK-3350,PAYLOAD,2022-03-24 14:00:01,15.73143257,0.0003037,53.2148,315.1165,12.1353,87.4253,0.00051485,0.00072093,0.0,0 STARLINK-3350,1 51105U 22005B   22083.58334491  .00072093  00000-0  51485-3 0  9990,2 51105  53.2148 315.1165 0003037  12.1353  87.4253 15.73143257  3681,6728.057,91.536,351.965,347.879,0.0
51105.0,STARLINK-3350,PAYLOAD,2022-03-24 22:00:00,15.73201969,0.0003275,53.2145,313.4689,11.9748,176.4904,3.3906e-05,4.139e-05,0.0,0 STARLINK-3350,1 51105U 22005B   22083.91667824  .00004139  00000-0  33906-4 0  9991,2 51105  53.2145 313.4689 0003275  11.9748 176.4904 15.73201969 11528,6727.89,91.533,351.958,347.551,0.0
51105.0,STARLINK-3350,PAYLOAD,2022-03-25 14:00:01,15.73206181,0.0002989,53.2142,310.1677,12.1758,354.1881,-0.000109,-0.00015899,0.0,0 STARLINK-3350,1 51105U 22005B   22084.58334491 -.00015899  00000-0 -10900-3 0  9991,2 51105  53.2142 310.1677 0002989  12.1758 354.1881 15.73206181  3690,6727.878000000002,91.533,351.754,347.732,0.0
51105.0,STARLINK-3350,PAYLOAD,2022-03-25 20:00:01,15.73174203,0.0003207,53.2144,308.9322,14.3471,328.6988,0.00010043,0.00013482,0.0,0 STARLINK-3350,1 51105U 22005B   22084.83334491  .00013482  00000-0  10043-3 0  9991,2 51105  53.2144 308.9322 0003207  14.3471 328.6988 15.73174203 11674,6727.969,91.535,351.991,347.676,0.0
51105.0,STARLINK-3350,PAYLOAD,2022-03-25 22:00:01,15.73169816,0.0003284,53.2144,308.5203,14.1972,81.1396,0.00025243,0.00034914,0.0,0 STARLINK-3350,1 51105U 22005B   22084.91668981  .00034914  00000-0  25243-3 0  9995,2 51105  53.2144 308.5203 0003284  14.1972  81.1396 15.73169816  3700,6727.981,91.535,352.056,347.63699999999994,0.0
51105.0,STARLINK-3350,PAYLOAD,2022-03-26 06:00:00,15.7325158,0.0003235,53.2144,306.8702,11.9496,172.2303,-0.00032289,-0.00045807,0.0,0 STARLINK-3350,1 51105U 22005B   22085.25001157 -.00045807  00000-0 -32289-3 0  9992,2 51105  53.2144 306.8702 0003235  11.9496 172.2303 15.73251580 11739,6727.748000000001,91.53,351.79,347.43699999999984,0.0
51105.0,STARLINK-3350,PAYLOAD,2022-03-26 14:00:01,15.73173744,0.0003078,53.2145,305.2193,11.4662,261.6758,0.00026622,0.00036869,0.0,0 STARLINK-3350,1 51105U 22005B   22085.58334491  .00036869  00000-0  26622-3 0  9998,2 51105  53.2145 305.2193 0003078  11.4662 261.6758 15.73173744  3678,6727.97,91.535,351.906,347.764,0.0
51105.0,STARLINK-3350,PAYLOAD,2022-03-26 22:00:00,15.73222311,0.0003289,53.2142,303.5719,8.2661,353.80300000000005,-0.00040687,-0.0005741,0.0,0 STARLINK-3350,1 51105U 22005B   22085.91667824 -.00057410  00000-0 -40687-3 0  9998,2 51105  53.2142 303.5719 0003289   8.2661 353.8030 15.73222311  3703,6727.831999999999,91.532,351.909,347.4840000000001,0.0
51105.0,STARLINK-3350,PAYLOAD,2022-03-27 06:00:00,15.73260946,0.0003265,53.2143,301.913,12.7874,78.2701,-0.00088693,-0.00123652,0.0,0 STARLINK-3350,1 51105U 22005B   22086.25001157 -.00123652  00000-0 -88693-3 0  9998,2 51105  53.2143 301.9130 0003265  12.7874  78.2701 15.73260946 11891,6727.721,91.53,351.783,347.39,0.0
